OBJECT_NAME,OBJECT_ID,EPOCH,MEAN_MOTION,ECCENTRICITY,INCLINATION,RA_OF_ASC_NODE,ARG_OF_PERICENTER,MEAN_ANOMALY,EPHEMERIS_TYPE,CLASSIFICATION_TYPE,NORAD_CAT_ID,ELEMENT_SET_NO,REV_AT_EPOCH,BSTAR,MEAN_MOTION_DOT,MEAN_MOTION_DDOT
TRANSPORTER-17 OBJECT BL,2026-156BL,2026-07-21T14:59:56.703840,14.92201996,.00098151,97.7537,102.8566,108.9379,251.2905,0,U,69927,999,196,.73833261E-4,.697E-5,0
TRANSPORTER-17 OBJECT BM,2026-156BM,2026-07-21T14:59:33.209952,14.92254796,.00103277,97.7571,102.8622,107.6733,252.5615,0,U,69928,999,213,.31623608E-3,.3173E-4,0
TRANSPORTER-17 OBJECT BN,2026-156BN,2026-07-21T14:58:24.117600,14.92339971,.00106429,97.7545,102.8594,106.3951,253.8439,0,U,69929,999,213,.27593983E-3,.2768E-4,0
TRANSPORTER-17 OBJECT BP,2026-156BP,2026-07-21T13:21:28.158624,14.92365072,.00105896,97.7561,102.7968,110.1367,250.0993,0,U,69930,999,212,.31371112E-3,.3156E-4,0
TRANSPORTER-17 OBJECT BQ,2026-156BQ,2026-07-21T14:58:01.485120,14.92341699,.00108263,97.7519,102.8555,103.2196,257.0232,0,U,69931,999,213,.76252094E-4,.724E-5,0
TRANSPORTER-17 OBJECT BR,2026-156BR,2026-07-21T13:21:23.251968,14.92347494,.00110583,97.7470,102.7812,101.3372,258.9090,0,U,69932,999,212,.58192255E-4,.539E-5,0
TRANSPORTER-17 OBJECT BS,2026-156BS,2026-07-21T14:57:23.075136,14.92409293,.00110605,97.7548,102.8605,105.7028,254.5413,0,U,69933,999,213,.30804295E-3,.3102E-4,0
TRANSPORTER-17 OBJECT BT,2026-156BT,2026-07-21T13:20:29.825664,14.92435850,.00110591,97.7539,102.7938,108.4757,251.7665,0,U,69934,999,212,.31203335E-3,.3145E-4,0
TRANSPORTER-17 OBJECT BU,2026-156BU,2026-07-21T14:56:13.645824,14.92486854,.00115379,97.7480,102.8502,103.7745,256.4759,0,U,69935,999,213,.19685677E-3,.1966E-4,0
TRANSPORTER-17 OBJECT BV,2026-156BV,2026-07-21T08:30:08.182368,14.92470746,.00114683,97.7480,102.5862,104.6015,255.6477,0,U,69936,999,209,.12139298E-3,.119E-4,0
TRANSPORTER-17 OBJECT BW,2026-156BW,2026-07-21T14:53:06.036864,14.92714190,.00124151,97.7512,102.8590,103.5601,256.7002,0,U,69937,999,213,.19831257E-3,.1993E-4,0
TRANSPORTER-17 OBJECT BX,2026-156BX,2026-07-21T14:56:05.685792,14.92503060,.00115944,97.7494,102.8538,100.6848,259.5678,0,U,69938,999,213,.24928598E-3,.2506E-4,0
TRANSPORTER-17 OBJECT BY,2026-156BY,2026-07-21T14:55:47.334432,14.92505839,.00111501,97.7572,102.8662,111.7175,248.5232,0,U,69939,999,213,.92804598E-4,.897E-5,0
TRANSPORTER-17 OBJECT BZ,2026-156BZ,2026-07-21T14:54:31.142592,14.92596132,.00118757,97.7556,102.8640,106.3343,253.9183,0,U,69940,999,213,.64446499E-4,.607E-5,0
TRANSPORTER-17 OBJECT CA,2026-156CA,2026-07-21T15:00:53.066016,14.92162256,.00101056,97.7508,102.8515,101.3236,258.9119,0,U,69941,999,213,.38070266E-3,.3823E-4,0
TRANSPORTER-17 OBJECT CB,2026-156CB,2026-07-21T15:01:01.693920,14.92141543,.00100229,97.7507,102.8512,101.5508,258.6837,0,U,69942,999,213,.37788722E-3,.3792E-4,0
STARLINK-37886,2026-157A,2026-07-21T15:01:58.309248,15.80936149,.00012681,53.1590,263.5999,86.0562,274.0606,0,U,69943,999,195,.86246667E-3,.17349E-2,0
STARLINK-37937,2026-157B,2026-07-21T14:00:01.999872,15.80826400,.00011484,53.1594,263.7990,82.6303,41.6277,0,U,69944,999,318,.38715521E-3,.76225E-3,0
STARLINK-37903,2026-157C,2026-07-21T14:58:32.131200,15.80943162,.00020265,53.1587,263.5833,80.3984,279.7268,0,U,69945,999,195,.10426271E-2,.21087E-2,0
STARLINK-37905,2026-157D,2026-07-21T14:53:39.288768,15.80921661,.00011812,53.1597,263.5607,101.8156,258.2999,0,U,69946,999,195,.6474681E-3,.12931E-2,0
STARLINK-37904,2026-157E,2026-07-21T14:52:39.877536,15.80963507,.00010935,53.1591,263.5560,106.7151,253.3992,0,U,69947,999,195,.11241116E-2,.228072E-2,0
STARLINK-37891,2026-157F,2026-07-21T14:00:01.999872,15.80828558,.00012694,53.1593,263.7325,87.2378,69.0185,0,U,69948,999,318,.40633926E-3,.80081E-3,0
STARLINK-37923,2026-157G,2026-07-21T14:00:01.999872,15.80827418,.00012491,53.1594,263.6971,86.3596,87.0017,0,U,69949,999,318,.43280537E-3,.85391E-3,0
STARLINK-37895,2026-157H,2026-07-21T14:00:01.999872,15.80824124,.00012796,53.1593,263.6814,87.2981,93.5223,0,U,69950,999,318,.48598717E-3,.96075E-3,0
STARLINK-37841,2026-157J,2026-07-21T14:00:01.999872,15.80824359,.00013818,53.1592,263.6577,74.1545,118.0895,0,U,69951,999,318,.45890461E-3,.90625E-3,0
STARLINK-37899,2026-157K,2026-07-21T14:00:01.999872,15.80824484,.00012375,53.1592,263.6348,84.9686,118.4258,0,U,69952,999,318,.44416762E-3,.87662E-3,0
STARLINK-37900,2026-157L,2026-07-21T14:00:01.999872,15.80824108,.00011305,53.1590,263.6268,82.7814,124.4486,0,U,69953,999,318,.45391489E-3,.8962E-3,0
STARLINK-37882,2026-157M,2026-07-21T14:00:01.999872,15.80823339,.00010031,53.1590,263.6043,92.1842,125.8568,0,U,69954,999,318,.44155627E-3,.87132E-3,0
STARLINK-37928,2026-157N,2026-07-21T14:00:01.999872,15.80818566,.00012352,53.1590,263.6030,83.1053,135.6242,0,U,69955,999,318,.47940555E-3,.94725E-3,0
