TRANSPORTER-17 OBJECT BL
1 69927U 26156BL  26202.62496185  .00000697  00000+0  73833-4 0  9995
2 69927  97.7537 102.8566 0009815 108.9379 251.2905 14.92201996  1964
TRANSPORTER-17 OBJECT BM
1 69928U 26156BM  26202.62468993  .00003173  00000+0  31624-3 0  9995
2 69928  97.7571 102.8622 0010327 107.6733 252.5615 14.92254796  2134
TRANSPORTER-17 OBJECT BN
1 69929U 26156BN  26202.62389025  .00002768  00000+0  27594-3 0  9994
2 69929  97.7545 102.8594 0010642 106.3951 253.8439 14.92339971  2139
TRANSPORTER-17 OBJECT BP
1 69930U 26156BP  26202.55657591  .00003156  00000+0  31371-3 0  9994
2 69930  97.7561 102.7968 0010589 110.1367 250.0993 14.92365072  2121
TRANSPORTER-17 OBJECT BQ
1 69931U 26156BQ  26202.62362830  .00000724  00000+0  76252-4 0  9998
2 69931  97.7519 102.8555 0010826 103.2196 257.0232 14.92341699  2138
TRANSPORTER-17 OBJECT BR
1 69932U 26156BR  26202.55651912  .00000539  00000+0  58192-4 0  9990
2 69932  97.7470 102.7812 0011058 101.3372 258.9090 14.92347494  2123
TRANSPORTER-17 OBJECT BS
1 69933U 26156BS  26202.62318374  .00003102  00000+0  30804-3 0  9999
2 69933  97.7548 102.8605 0011060 105.7028 254.5413 14.92409293  2138
TRANSPORTER-17 OBJECT BT
1 69934U 26156BT  26202.55590076  .00003145  00000+0  31203-3 0  9994
2 69934  97.7539 102.7938 0011059 108.4757 251.7665 14.92435850  2129
TRANSPORTER-17 OBJECT BU
1 69935U 26156BU  26202.62238016  .00001966  00000+0  19686-3 0  9996
2 69935  97.7480 102.8502 0011537 103.7745 256.4759 14.92486854  2136
TRANSPORTER-17 OBJECT BV
1 69936U 26156BV  26202.35426137  .00001190  00000+0  12139-3 0  9995
2 69936  97.7480 102.5862 0011468 104.6015 255.6477 14.92470746  2092
TRANSPORTER-17 OBJECT BW
1 69937U 26156BW  26202.62020876  .00001993  00000+0  19831-3 0  9993
2 69937  97.7512 102.8590 0012415 103.5601 256.7002 14.92714190  2137
TRANSPORTER-17 OBJECT BX
1 69938U 26156BX  26202.62228803  .00002506  00000+0  24929-3 0  9999
2 69938  97.7494 102.8538 0011594 100.6848 259.5678 14.92503060  2139
TRANSPORTER-17 OBJECT BY
1 69939U 26156BY  26202.62207563  .00000897  00000+0  92805-4 0  9990
2 69939  97.7572 102.8662 0011150 111.7175 248.5232 14.92505839  2139
TRANSPORTER-17 OBJECT BZ
1 69940U 26156BZ  26202.62119378  .00000607  00000+0  64446-4 0  9997
2 69940  97.7556 102.8640 0011875 106.3343 253.9183 14.92596132  2131
TRANSPORTER-17 OBJECT CA
1 69941U 26156CA  26202.62561419  .00003823  00000+0  38070-3 0  9991
2 69941  97.7508 102.8515 0010105 101.3236 258.9119 14.92162256  2131
TRANSPORTER-17 OBJECT CB
1 69942U 26156CB  26202.62571405  .00003792  00000+0  37789-3 0  9999
2 69942  97.7507 102.8512 0010022 101.5508 258.6837 14.92141543  2130
STARLINK-37886          
1 69943U 26157A   26202.62636932  .00173490  00000+0  86247-3 0  9994
2 69943  53.1590 263.5999 0001268  86.0562 274.0606 15.80936149  1959
STARLINK-37937          
1 69944U 26157B   26202.58335648  .00076225  00000+0  38716-3 0  9996
2 69944  53.1594 263.7990 0001148  82.6303  41.6277 15.80826400  3186
STARLINK-37903          
1 69945U 26157C   26202.62398300  .00210870  00000+0  10426-2 0  9999
2 69945  53.1587 263.5833 0002026  80.3984 279.7268 15.80943162  1951
STARLINK-37905          
1 69946U 26157D   26202.62059362  .00129310  00000+0  64747-3 0  9996
2 69946  53.1597 263.5607 0001181 101.8156 258.2999 15.80921661  1956
STARLINK-37904          
1 69947U 26157E   26202.61990599  .00228072  00000+0  11241-2 0  9997
2 69947  53.1591 263.5560 0001093 106.7151 253.3992 15.80963507  1954
STARLINK-37891          
1 69948U 26157F   26202.58335648  .00080081  00000+0  40634-3 0  9997
2 69948  53.1593 263.7325 0001269  87.2378  69.0185 15.80828558  3186
STARLINK-37923          
1 69949U 26157G   26202.58335648  .00085391  00000+0  43281-3 0  9998
2 69949  53.1594 263.6971 0001249  86.3596  87.0017 15.80827418  3182
STARLINK-37895          
1 69950U 26157H   26202.58335648  .00096075  00000+0  48599-3 0  9998
2 69950  53.1593 263.6814 0001279  87.2981  93.5223 15.80824124  3182
STARLINK-37841          
1 69951U 26157J   26202.58335648  .00090625  00000+0  45890-3 0  9995
2 69951  53.1592 263.6577 0001381  74.1545 118.0895 15.80824359  3181
STARLINK-37899          
1 69952U 26157K   26202.58335648  .00087662  00000+0  44417-3 0  9997
2 69952  53.1592 263.6348 0001237  84.9686 118.4258 15.80824484  3189
STARLINK-37900          
1 69953U 26157L   26202.58335648  .00089620  00000+0  45391-3 0  9996
2 69953  53.1590 263.6268 0001130  82.7814 124.4486 15.80824108  3183
STARLINK-37882          
1 69954U 26157M   26202.58335648  .00087132  00000+0  44156-3 0  9991
2 69954  53.1590 263.6043 0001003  92.1842 125.8568 15.80823339  3181
STARLINK-37928          
1 69955U 26157N   26202.58335648  .00094725  00000+0  47941-3 0  9993
2 69955  53.1590 263.6030 0001235  83.1053 135.6242 15.80818566  3183
